[{"OBJECT_NAME":"STARLINK-37079","OBJECT_ID":"2026-050V","EPOCH":"2026-03-27T20:00:01.999008","MEAN_MOTION":15.80864515,"ECCENTRICITY":0.0001047,"INCLINATION":53.1591,"RA_OF_ASC_NODE":190.7462,"ARG_OF_PERICENTER":83.0936,"MEAN_ANOMALY":0.6774,"EPHEMERIS_TYPE":0,"CLASSIFICATION_TYPE":"U","NORAD_CAT_ID":68186,"ELEMENT_SET_NO":999,"REV_AT_EPOCH":335,"BSTAR":5.1181e-5,"MEAN_MOTION_DOT":9.41e-5,"MEAN_MOTION_DDOT":0},{"OBJECT_NAME":"STARLINK-37006","OBJECT_ID":"2026-050W","EPOCH":"2026-03-27T20:00:01.999008","MEAN_MOTION":15.80838417,"ECCENTRICITY":9.6e-5,"INCLINATION":53.1591,"RA_OF_ASC_NODE":190.7377,"ARG_OF_PERICENTER":68.8056,"MEAN_ANOMALY":19.2355,"EPHEMERIS_TYPE":0,"CLASSIFICATION_TYPE":"U","NORAD_CAT_ID":68187,"ELEMENT_SET_NO":999,"REV_AT_EPOCH":335,"BSTAR":0.00056161,"MEAN_MOTION_DOT":0.00111406,"MEAN_MOTION_DDOT":0},{"OBJECT_NAME":"STARLINK-36340","OBJECT_ID":"2026-050X","EPOCH":"2026-03-27T20:00:01.999008","MEAN_MOTION":15.80872542,"ECCENTRICITY":0.0001065,"INCLINATION":53.1589,"RA_OF_ASC_NODE":190.7285,"ARG_OF_PERICENTER":72.622,"MEAN_ANOMALY":19.6877,"EPHEMERIS_TYPE":0,"CLASSIFICATION_TYPE":"U","NORAD_CAT_ID":68188,"ELEMENT_SET_NO":999,"REV_AT_EPOCH":319,"BSTAR":0.00011953,"MEAN_MOTION_DOT":0.00022954,"MEAN_MOTION_DDOT":0},{"OBJECT_NAME":"STARLINK-36305","OBJECT_ID":"2026-050Y","EPOCH":"2026-03-27T20:00:01.999008","MEAN_MOTION":15.8087876,"ECCENTRICITY":0.0001041,"INCLINATION":53.159,"RA_OF_ASC_NODE":190.72,"ARG_OF_PERICENTER":77.8341,"MEAN_ANOMALY":18.7401,"EPHEMERIS_TYPE":0,"CLASSIFICATION_TYPE":"U","NORAD_CAT_ID":68189,"ELEMENT_SET_NO":999,"REV_AT_EPOCH":325,"BSTAR":7.3677e-6,"MEAN_MOTION_DOT":7.56e-6,"MEAN_MOTION_DDOT":0},{"OBJECT_NAME":"STARLINK-37071","OBJECT_ID":"2026-050Z","EPOCH":"2026-03-27T20:00:01.999008","MEAN_MOTION":15.80882216,"ECCENTRICITY":0.0001071,"INCLINATION":53.159,"RA_OF_ASC_NODE":190.7023,"ARG_OF_PERICENTER":94.263,"MEAN_ANOMALY":10.8522,"EPHEMERIS_TYPE":0,"CLASSIFICATION_TYPE":"U","NORAD_CAT_ID":68190,"ELEMENT_SET_NO":999,"REV_AT_EPOCH":335,"BSTAR":1.0743e-5,"MEAN_MOTION_DOT":1.423e-5,"MEAN_MOTION_DDOT":0},{"OBJECT_NAME":"STARLINK-37091","OBJECT_ID":"2026-050AA","EPOCH":"2026-03-27T20:00:01.999008","MEAN_MOTION":15.80863705,"ECCENTRICITY":0.0001026,"INCLINATION":53.1587,"RA_OF_ASC_NODE":190.693,"ARG_OF_PERICENTER":72.4452,"MEAN_ANOMALY":36.9513,"EPHEMERIS_TYPE":0,"CLASSIFICATION_TYPE":"U","NORAD_CAT_ID":68191,"ELEMENT_SET_NO":999,"REV_AT_EPOCH":335,"BSTAR":0.00030054,"MEAN_MOTION_DOT":0.00058998,"MEAN_MOTION_DDOT":0},{"OBJECT_NAME":"STARLINK-37098","OBJECT_ID":"2026-050AB","EPOCH":"2026-03-27T20:00:01.999008","MEAN_MOTION":15.80859977,"ECCENTRICITY":0.0001199,"INCLINATION":53.159,"RA_OF_ASC_NODE":190.6844,"ARG_OF_PERICENTER":82.8648,"MEAN_ANOMALY":30.8056,"EPHEMERIS_TYPE":0,"CLASSIFICATION_TYPE":"U","NORAD_CAT_ID":68192,"ELEMENT_SET_NO":999,"REV_AT_EPOCH":335,"BSTAR":0.00026309,"MEAN_MOTION_DOT":0.00051506,"MEAN_MOTION_DDOT":0},{"OBJECT_NAME":"STARLINK-37090","OBJECT_ID":"2026-050AC","EPOCH":"2026-03-27T20:00:01.999008","MEAN_MOTION":15.80878955,"ECCENTRICITY":0.000116,"INCLINATION":53.1592,"RA_OF_ASC_NODE":190.6663,"ARG_OF_PERICENTER":66.9215,"MEAN_ANOMALY":55.2802,"EPHEMERIS_TYPE":0,"CLASSIFICATION_TYPE":"U","NORAD_CAT_ID":68193,"ELEMENT_SET_NO":999,"REV_AT_EPOCH":335,"BSTAR":0.00014051,"MEAN_MOTION_DOT":0.00027127,"MEAN_MOTION_DDOT":0},{"OBJECT_NAME":"STARLINK-37093","OBJECT_ID":"2026-050AD","EPOCH":"2026-03-27T20:00:01.999008","MEAN_MOTION":15.80759394,"ECCENTRICITY":0.0001498,"INCLINATION":53.1592,"RA_OF_ASC_NODE":190.7105,"ARG_OF_PERICENTER":45.621,"MEAN_ANOMALY":55.3069,"EPHEMERIS_TYPE":0,"CLASSIFICATION_TYPE":"U","NORAD_CAT_ID":68194,"ELEMENT_SET_NO":999,"REV_AT_EPOCH":335,"BSTAR":0.00075609,"MEAN_MOTION_DOT":0.00150363,"MEAN_MOTION_DDOT":0},{"OBJECT_NAME":"STARLINK-37058","OBJECT_ID":"2026-050AE","EPOCH":"2026-03-27T20:00:01.999008","MEAN_MOTION":15.80884011,"ECCENTRICITY":9.45e-5,"INCLINATION":53.1588,"RA_OF_ASC_NODE":190.6751,"ARG_OF_PERICENTER":75.9292,"MEAN_ANOMALY":42.0025,"EPHEMERIS_TYPE":0,"CLASSIFICATION_TYPE":"U","NORAD_CAT_ID":68195,"ELEMENT_SET_NO":999,"REV_AT_EPOCH":335,"BSTAR":1.0693e-5,"MEAN_MOTION_DOT":1.413e-5,"MEAN_MOTION_DDOT":0},{"OBJECT_NAME":"YAOGAN-50 02","OBJECT_ID":"2026-051A","EPOCH":"2026-03-27T20:19:09.045408","MEAN_MOTION":13.83267006,"ECCENTRICITY":8.34e-5,"INCLINATION":141.9885,"RA_OF_ASC_NODE":294.7789,"ARG_OF_PERICENTER":249.5458,"MEAN_ANOMALY":110.5172,"EPHEMERIS_TYPE":0,"CLASSIFICATION_TYPE":"U","NORAD_CAT_ID":68196,"ELEMENT_SET_NO":999,"REV_AT_EPOCH":172,"BSTAR":7.163e-5,"MEAN_MOTION_DOT":2.66e-6,"MEAN_MOTION_DDOT":0},{"OBJECT_NAME":"CZ-6A R/B","OBJECT_ID":"2026-051B","EPOCH":"2026-03-27T19:36:33.537312","MEAN_MOTION":14.5636872,"ECCENTRICITY":0.0186511,"INCLINATION":142.0321,"RA_OF_ASC_NODE":300.9629,"ARG_OF_PERICENTER":181.2547,"MEAN_ANOMALY":178.7718,"EPHEMERIS_TYPE":0,"CLASSIFICATION_TYPE":"U","NORAD_CAT_ID":68197,"ELEMENT_SET_NO":999,"REV_AT_EPOCH":180,"BSTAR":0.00010792,"MEAN_MOTION_DOT":9.12e-6,"MEAN_MOTION_DDOT":0},{"OBJECT_NAME":"2026-052A","OBJECT_ID":"2026-052A","EPOCH":"2026-03-26T14:56:36.140064","MEAN_MOTION":15.09879016,"ECCENTRICITY":0.00129773,"INCLINATION":97.5376,"RA_OF_ASC_NODE":161.7059,"ARG_OF_PERICENTER":225.7685,"MEAN_ANOMALY":134.248,"EPHEMERIS_TYPE":0,"CLASSIFICATION_TYPE":"U","NORAD_CAT_ID":68198,"ELEMENT_SET_NO":999,"REV_AT_EPOCH":158,"BSTAR":3.152876e-5,"MEAN_MOTION_DOT":4.48e-6,"MEAN_MOTION_DDOT":0},{"OBJECT_NAME":"YUXING-3 06","OBJECT_ID":"2026-052B","EPOCH":"2026-03-27T17:57:14.785920","MEAN_MOTION":15.10075944,"ECCENTRICITY":0.0011999,"INCLINATION":97.5374,"RA_OF_ASC_NODE":162.8151,"ARG_OF_PERICENTER":223.4844,"MEAN_ANOMALY":136.544,"EPHEMERIS_TYPE":0,"CLASSIFICATION_TYPE":"U","NORAD_CAT_ID":68199,"ELEMENT_SET_NO":999,"REV_AT_EPOCH":175,"BSTAR":0.00031527,"MEAN_MOTION_DOT":5.078e-5,"MEAN_MOTION_DDOT":0},{"OBJECT_NAME":"2026-052C","OBJECT_ID":"2026-052C","EPOCH":"2026-03-27T21:06:36.635616","MEAN_MOTION":15.10204614,"ECCENTRICITY":0.0011739,"INCLINATION":97.5369,"RA_OF_ASC_NODE":162.948,"ARG_OF_PERICENTER":225.4496,"MEAN_ANOMALY":134.5776,"EPHEMERIS_TYPE":0,"CLASSIFICATION_TYPE":"U","NORAD_CAT_ID":68200,"ELEMENT_SET_NO":999,"REV_AT_EPOCH":176,"BSTAR":0.00028673,"MEAN_MOTION_DOT":4.628e-5,"MEAN_MOTION_DDOT":0},{"OBJECT_NAME":"2026-052D","OBJECT_ID":"2026-052D","EPOCH":"2026-03-27T21:04:45.197760","MEAN_MOTION":15.10403581,"ECCENTRICITY":0.0010845,"INCLINATION":97.5369,"RA_OF_ASC_NODE":162.9459,"ARG_OF_PERICENTER":222.0296,"MEAN_ANOMALY":138.0103,"EPHEMERIS_TYPE":0,"CLASSIFICATION_TYPE":"U","NORAD_CAT_ID":68201,"ELEMENT_SET_NO":999,"REV_AT_EPOCH":177,"BSTAR":0.00041792,"MEAN_MOTION_DOT":6.813e-5,"MEAN_MOTION_DDOT":0},{"OBJECT_NAME":"2026-052E","OBJECT_ID":"2026-052E","EPOCH":"2026-03-27T21:04:43.435200","MEAN_MOTION":15.10404109,"ECCENTRICITY":0.0010733,"INCLINATION":97.5374,"RA_OF_ASC_NODE":162.9487,"ARG_OF_PERICENTER":226.0486,"MEAN_ANOMALY":133.9859,"EPHEMERIS_TYPE":0,"CLASSIFICATION_TYPE":"U","NORAD_CAT_ID":68202,"ELEMENT_SET_NO":999,"REV_AT_EPOCH":177,"BSTAR":0.00042133,"MEAN_MOTION_DOT":6.869e-5,"MEAN_MOTION_DDOT":0}]
