STARLINK-37079          
1 68186U 26050V   26086.83335647  .00009410  00000+0  51181-4 0  9996
2 68186  53.1591 190.7462 0001047  83.0936   0.6774 15.80864515  3353
STARLINK-37006          
1 68187U 26050W   26086.83335647  .00111406  00000+0  56161-3 0  9998
2 68187  53.1591 190.7377 0000960  68.8056  19.2355 15.80838417  3359
STARLINK-36340          
1 68188U 26050X   26086.83335647  .00022954  00000+0  11953-3 0  9998
2 68188  53.1589 190.7285 0001065  72.6220  19.6877 15.80872542  3190
STARLINK-36305          
1 68189U 26050Y   26086.83335647  .00000756  00000+0  73677-5 0  9998
2 68189  53.1590 190.7200 0001041  77.8341  18.7401 15.80878760  3253
STARLINK-37071          
1 68190U 26050Z   26086.83335647  .00001423  00000+0  10743-4 0  9996
2 68190  53.1590 190.7023 0001071  94.2630  10.8522 15.80882216  3354
STARLINK-37091          
1 68191U 26050AA  26086.83335647  .00058998  00000+0  30054-3 0  9992
2 68191  53.1587 190.6930 0001026  72.4452  36.9513 15.80863705  3358
STARLINK-37098          
1 68192U 26050AB  26086.83335647  .00051506  00000+0  26309-3 0  9999
2 68192  53.1590 190.6844 0001199  82.8648  30.8056 15.80859977  3351
STARLINK-37090          
1 68193U 26050AC  26086.83335647  .00027127  00000+0  14051-3 0  9993
2 68193  53.1592 190.6663 0001160  66.9215  55.2802 15.80878955  3351
STARLINK-37093          
1 68194U 26050AD  26086.83335647  .00150363  00000+0  75609-3 0  9999
2 68194  53.1592 190.7105 0001498  45.6210  55.3069 15.80759394  3358
STARLINK-37058          
1 68195U 26050AE  26086.83335647  .00001413  00000+0  10693-4 0  9994
2 68195  53.1588 190.6751 0000945  75.9292  42.0025 15.80884011  3352
YAOGAN-50 02            
1 68196U 26051A   26086.84663247  .00000266  00000+0  71630-4 0  9990
2 68196 141.9885 294.7789 0000834 249.5458 110.5172 13.83267006  1729
CZ-6A R/B               
1 68197U 26051B   26086.81705483  .00000912  00000+0  10792-3 0  9996
2 68197 142.0321 300.9629 0186511 181.2547 178.7718 14.56368720  1805
2026-052A               
1 68198U 26052A   26085.62264051  .00000448  00000+0  31529-4 0  9993
2 68198  97.5376 161.7059 0012977 225.7685 134.2480 15.09879016  1583
YUXING-3 06             
1 68199U 26052B   26086.74808780  .00005078  00000+0  31527-3 0  9992
2 68199  97.5374 162.8151 0011999 223.4844 136.5440 15.10075944  1752
2026-052C               
1 68200U 26052C   26086.87959069  .00004628  00000+0  28673-3 0  9994
2 68200  97.5369 162.9480 0011739 225.4496 134.5776 15.10204614  1761
2026-052D               
1 68201U 26052D   26086.87830090  .00006813  00000+0  41792-3 0  9992
2 68201  97.5369 162.9459 0010845 222.0296 138.0103 15.10403581  1774
2026-052E               
1 68202U 26052E   26086.87828050  .00006869  00000+0  42133-3 0  9997
2 68202  97.5374 162.9487 0010733 226.0486 133.9859 15.10404109  1772
